BRITE-AUSTRIA           
1 39091U 13009F   24333.77065527  .00000923  00000+0  33162-3 0  9990
2 39091  98.3821 156.8574 0011192 124.8465 235.3776 14.36085154615883
SDO                     
1 36395U 10005A   24333.35208944 -.00000048  00000+0  00000+0 0  9993
2 36395  33.4665  95.0330 0001741 178.9633 178.8102  1.00272035 54382
TERRA                   
1 25994U 99068A   24334.11051840  .00001616  00000+0  34404-3 0  9998
2 25994  98.0285  32.6192 0002094 174.2271 214.1335 14.60267380327238
HST                     
1 20580U 90037B   24333.66467875  .00014424  00000+0  61570-3 0  9994
2 20580  28.4698 320.4190 0002115  41.5169 318.5585 15.21396358702072
POLAR                   
1 23802U 96013A   24326.78131033  .00000137  00000+0  00000+0 0  9996
2 23802  79.2499 233.1228 5967963 228.4010  62.4543  1.29846786137422
SWAS                    
1 25560U 98071A   24333.49247913  .00012940  00000+0  95837-3 0  9997
2 25560  69.8983 240.0000 0004765  14.0576 346.0716 15.03264632412055
CXO                     
1 25867U 99040B   24337.10248963  .00000640  00000+0  00000+0 0  9990
2 25867  44.9628 140.7483 8701992 304.6886   0.0128  0.37806732 26354
XMM-NEWTON              
1 25989U 99066A   24329.96302274 -.00000034  00000+0  00000+0 0  9992
2 25989  67.1521 290.6193 4994927  74.6606   0.2373  0.50140222 20159
CLUSTER II-FM7 (SAMBA)  
1 26410U 00041A   24332.16511059  .00001063  00000+0  00000+0 0  9998
2 26410 141.2367   2.9488 7908879 218.0524   0.6057  0.44220033 29524
CLUSTER II-FM5 (RUMBA)  
1 26463U 00045A   24335.69516441  .00005850  00000+0  00000+0 0  9999
2 26463 153.3274  39.8071 8863026 256.3284   0.3561  0.42912235 17707
CLUSTER II-FM8 (TANGO)  
1 26464U 00045B   24316.33596494  .00000530  00000+0  00000+0 0  9996
2 26464 141.0419   2.4124 7869840 217.5188   0.7328  0.44221711 65374
ODIN                    
1 26702U 01007A   24334.03597741  .00027251  00000+0  92759-3 0  9998
2 26702  97.4671 349.2710 0008850  63.8627 296.3523 15.30349751302656
TIMED                   
1 26998U 01055B   24333.86039284  .00005055  00000+0  49255-3 0  9992
2 26998  74.0699 291.3667 0003136 275.6248  84.4577 14.92756885246385
INTEGRAL                
1 27540U 02048A   24333.80927076 -.00000145  00000+0  00000+0 0  9995
2 27540  90.4669  13.3182 8622622 277.2148 353.0185  0.37579574 24504
CORIOLIS                
1 27640U 03001A   24333.87807850  .00000486  00000+0  25050-3 0  9993
2 27640  98.7143 338.4943 0014832  44.1849 316.0509 14.19649086134005
SORCE                   
1 27651U 03004A   24333.81237894  .00010256  00000+0  86400-3 0  9999
2 27651  39.9921 234.8344 0021871 316.0168  43.8884 14.97847304186915
MOST                    
1 27843U 03031D   24334.03009079  .00000372  00000+0  19146-3 0  9990
2 27843  98.7074 338.6625 0011015  84.7879 275.4554 14.21099988110437
SCISAT 1                
1 27858U 03036A   24333.64464952  .00002775  00000+0  37095-3 0  9994
2 27858  73.9314 213.9632 0006355  40.0584 320.1059 14.80030062147731
SWIFT                   
1 28485U 04047A   24333.63568481  .00032235  00000+0  11454-2 0  9999
2 28485  20.5556  77.5789 0006120 251.2589 108.7185 15.27202110 99421
CALIPSO                 
1 29108U 06016B   24333.94162554  .00003964  00000+0  71441-3 0  9995
2 29108  98.4343 320.1941 0001109  83.6701 276.4628 14.67120062990090
HINODE (SOLAR-B)        
1 29479U 06041A   24334.01687066  .00002498  00000+0  45100-3 0  9997
2 29479  98.0826 347.0825 0016458 280.6641  79.2710 14.67255646971959
SHIJIAN-6 02A (SJ-6 02A)
1 29505U 06046A   24334.14656270  .00013539  00000+0  89789-3 0  9998
2 29505  97.7069   1.1677 0002017 292.8084  67.2930 15.07387613986973
SHIJIAN-6 02B (SJ-6 02B)
1 29506U 06046B   24334.11146710  .00003160  00000+0  26830-3 0  9996
2 29506  97.7269 357.4832 0003241  91.4157 268.7437 14.98620156986027
FGRST (GLAST)           
1 33053U 08029A   24333.92357613  .00006834  00000+0  30143-3 0  9998
2 33053  25.5795 156.1854 0009751 154.4025 205.6996 15.19084545909852
CRYOSAT 2               
1 36508U 10013A   24333.93747435  .00000782  00000+0  19329-3 0  9997
2 36508  92.0150 140.8788 0004184  87.9388 272.2298 14.51911686776067
X-SAT                   
1 37389U 11015C   24334.15920655  .00000505  00000+0  23333-3 0  9993
2 37389  98.3002 329.1369 0013635 198.0801 161.9896 14.24888622707720
GCOM-W1 (SHIZUKU)       
1 38337U 12025A   24334.16704546  .00002747  00000+0  62020-3 0  9995
2 38337  98.2205 271.8152 0001509  66.8428  46.5229 14.57063537666745
NUSTAR                  
1 38358U 12031A   24333.91667824  .00015555  00000+0  11488-2 0  9996
2 38358   6.0267 288.4602 0009034  18.7738 137.1536 15.00075872  1305
NEOSSAT                 
1 39089U 13009D   24333.77569798  .00000863  00000+0  31529-3 0  9994
2 39089  98.4011 156.8607 0011914 128.2997 231.9262 14.35412067615618
IRIS                    
1 39197U 13033A   24334.04527978  .00004618  00000+0  56693-3 0  9997
2 39197  97.9550 163.9363 0025807   7.4320 352.7271 14.83338146616534
HISAKI (SPRINT-A)       
1 39253U 13049A   24333.93143477  .00000248  00000+0  24876-3 0  9995
2 39253  29.7180 213.6121 0136737 114.6164 246.8719 13.55450340554671
